{
  "links" : {
    "next" : "https://api.nasa.gov/neo/rest/v1/feed?start_date=2015-01-23&end_date=2015-01-23&detailed=true&api_key=t0TVs3DtDT2H8Oy2Zy8m2eVrNsAVKAexjcZXUckd",
    "prev" : "https://api.nasa.gov/neo/rest/v1/feed?start_date=2015-01-21&end_date=2015-01-21&detailed=true&api_key=t0TVs3DtDT2H8Oy2Zy8m2eVrNsAVKAexjcZXUckd",
    "self" : "https://api.nasa.gov/neo/rest/v1/feed?start_date=2015-01-22&end_date=2015-01-22&detailed=true&api_key=t0TVs3DtDT2H8Oy2Zy8m2eVrNsAVKAexjcZXUckd"
  },
  "element_count" : 8,
  "near_earth_objects" : {
    "2015-01-22" : [ {
      "links" : {
        "self" : "https://api.nasa.gov/neo/rest/v1/neo/3605727?api_key=t0TVs3DtDT2H8Oy2Zy8m2eVrNsAVKAexjcZXUckd"
      },
      "neo_reference_id" : "3605727",
      "name" : "(2012 LW7)",
      "nasa_jpl_url" : "http://ssd.jpl.nasa.gov/sbdb.cgi?sstr=3605727",
      "absolute_magnitude_h" : 23.3,
      "estimated_diameter" : {
        "kilometers" : {
          "estimated_diameter_min" : 0.058150704,
          "estimated_diameter_max" : 0.130028927
        },
        "meters" : {
          "estimated_diameter_min" : 58.1507039646,
          "estimated_diameter_max" : 130.0289270043
        },
        "miles" : {
          "estimated_diameter_min" : 0.0361331611,
          "estimated_diameter_max" : 0.0807962044
        },
        "feet" : {
          "estimated_diameter_min" : 190.7831555951,
          "estimated_diameter_max" : 426.6041048727
        }
      },
      "is_potentially_hazardous_asteroid" : false,
      "close_approach_data" : [ {
        "close_approach_date" : "2015-01-22",
        "epoch_date_close_approach" : 1421913600000,
        "relative_velocity" : {
          "kilometers_per_second" : "6.2327762447",
          "kilometers_per_hour" : "22437.9944809818",
          "miles_per_hour" : "13942.0971818078"
        },
        "miss_distance" : {
          "astronomical" : "0.3629012094",
          "lunar" : "141.1685638428",
          "kilometers" : "54289248",
          "miles" : "33733776"
        },
        "orbiting_body" : "Earth"
      } ],
      "orbital_data" : {
        "orbit_id" : "11",
        "orbit_determination_date" : "2017-04-06 08:49:35",
        "orbit_uncertainty" : "6",
        "minimum_orbit_intersection" : ".0851895",
        "jupiter_tisserand_invariant" : "4.884",
        "epoch_osculation" : "2458000.5",
        "eccentricity" : ".2183507269021438",
        "semi_major_axis" : "1.331375250043512",
        "inclination" : "8.636464599774508",
        "ascending_node_longitude" : "91.21109872385541",
        "orbital_period" : "561.1114690955804",
        "perihelion_distance" : "1.040668496416988",
        "perihelion_argument" : "122.9940781837181",
        "aphelion_distance" : "1.622082003670037",
        "perihelion_time" : "2457721.157647065151",
        "mean_anomaly" : "179.2215140756918",
        "mean_motion" : ".641583749090463",
        "equinox" : "J2000"
      }
    }, {
      "links" : {
        "self" : "https://api.nasa.gov/neo/rest/v1/neo/3619461?api_key=t0TVs3DtDT2H8Oy2Zy8m2eVrNsAVKAexjcZXUckd"
      },
      "neo_reference_id" : "3619461",
      "name" : "(2012 XL16)",
      "nasa_jpl_url" : "http://ssd.jpl.nasa.gov/sbdb.cgi?sstr=3619461",
      "absolute_magnitude_h" : 25.5,
      "estimated_diameter" : {
        "kilometers" : {
          "estimated_diameter_min" : 0.0211132445,
          "estimated_diameter_max" : 0.0472106499
        },
        "meters" : {
          "estimated_diameter_min" : 21.113244479,
          "estimated_diameter_max" : 47.2106498806
        },
        "miles" : {
          "estimated_diameter_min" : 0.0131191578,
          "estimated_diameter_max" : 0.0293353287
        },
        "feet" : {
          "estimated_diameter_min" : 69.2691770164,
          "estimated_diameter_max" : 154.8905885541
        }
      },
      "is_potentially_hazardous_asteroid" : false,
      "close_approach_data" : [ {
        "close_approach_date" : "2015-01-22",
        "epoch_date_close_approach" : 1421913600000,
        "relative_velocity" : {
          "kilometers_per_second" : "5.1851844395",
          "kilometers_per_hour" : "18666.6639821098",
          "miles_per_hour" : "11598.7390726615"
        },
        "miss_distance" : {
          "astronomical" : "0.1759295854",
          "lunar" : "68.4366073608",
          "kilometers" : "26318692",
          "miles" : "16353677"
        },
        "orbiting_body" : "Earth"
      } ],
      "orbital_data" : {
        "orbit_id" : "7",
        "orbit_determination_date" : "2017-04-06 08:47:48",
        "orbit_uncertainty" : "6",
        "minimum_orbit_intersection" : ".0185856",
        "jupiter_tisserand_invariant" : "6.135",
        "epoch_osculation" : "2458000.5",
        "eccentricity" : ".1783972461898557",
        "semi_major_axis" : ".9854805421954934",
        "inclination" : "3.126290537611457",
        "ascending_node_longitude" : "259.3622114011042",
        "orbital_period" : "357.3308459663719",
        "perihelion_distance" : ".8096735272941316",
        "perihelion_argument" : "58.30931759261672",
        "aphelion_distance" : "1.161287557096855",
        "perihelion_time" : "2457957.968602339104",
        "mean_anomaly" : "42.84909441980736",
        "mean_motion" : "1.007469699478111",
        "equinox" : "J2000"
      }
    }, {
      "links" : {
        "self" : "https://api.nasa.gov/neo/rest/v1/neo/3656926?api_key=t0TVs3DtDT2H8Oy2Zy8m2eVrNsAVKAexjcZXUckd"
      },
      "neo_reference_id" : "3656926",
      "name" : "(2014 BT8)",
      "nasa_jpl_url" : "http://ssd.jpl.nasa.gov/sbdb.cgi?sstr=3656926",
      "absolute_magnitude_h" : 25.0,
      "estimated_diameter" : {
        "kilometers" : {
          "estimated_diameter_min" : 0.02658,
          "estimated_diameter_max" : 0.0594346868
        },
        "meters" : {
          "estimated_diameter_min" : 26.58,
          "estimated_diameter_max" : 59.4346868419
        },
        "miles" : {
          "estimated_diameter_min" : 0.0165160412,
          "estimated_diameter_max" : 0.0369309908
        },
        "feet" : {
          "estimated_diameter_min" : 87.2047272,
          "estimated_diameter_max" : 194.9956979785
        }
      },
      "is_potentially_hazardous_asteroid" : false,
      "close_approach_data" : [ {
        "close_approach_date" : "2015-01-22",
        "epoch_date_close_approach" : 1421913600000,
        "relative_velocity" : {
          "kilometers_per_second" : "6.6580757274",
          "kilometers_per_hour" : "23969.0726187813",
          "miles_per_hour" : "14893.4495947089"
        },
        "miss_distance" : {
          "astronomical" : "0.1243016685",
          "lunar" : "48.353351593",
          "kilometers" : "18595266",
          "miles" : "11554562"
        },
        "orbiting_body" : "Earth"
      } ],
      "orbital_data" : {
        "orbit_id" : "8",
        "orbit_determination_date" : "2017-04-06 08:42:46",
        "orbit_uncertainty" : "6",
        "minimum_orbit_intersection" : ".00325156",
        "jupiter_tisserand_invariant" : "6.127",
        "epoch_osculation" : "2458000.5",
        "eccentricity" : ".09307993479121322",
        "semi_major_axis" : ".9851745067377267",
        "inclination" : "12.53490068219016",
        "ascending_node_longitude" : "121.6291640884955",
        "orbital_period" : "357.1644082530961",
        "perihelion_distance" : ".8934745278926134",
        "perihelion_argument" : "264.0047492784302",
        "aphelion_distance" : "1.07687448558284",
        "perihelion_time" : "2458024.864905237572",
        "mean_anomaly" : "335.441657447261",
        "mean_motion" : "1.007939177816661",
        "equinox" : "J2000"
      }
    } ]
  }
}